[{"OBJECT_NAME":"FLOCK 4G-27","OBJECT_ID":"2025-009AJ","EPOCH":"2026-03-09T18:05:51.175392","MEAN_MOTION":15.27199247,"ECCENTRICITY":7.564e-5,"INCLINATION":97.3976,"RA_OF_ASC_NODE":150.8631,"ARG_OF_PERICENTER":322.4974,"MEAN_ANOMALY":37.6212,"EPHEMERIS_TYPE":0,"CLASSIFICATION_TYPE":"U","NORAD_CAT_ID":62641,"ELEMENT_SET_NO":999,"REV_AT_EPOCH":6371,"BSTAR":0.00047455305,"MEAN_MOTION_DOT":0.00012587,"MEAN_MOTION_DDOT":0},{"OBJECT_NAME":"STARLINK-32916","OBJECT_ID":"2025-027R","EPOCH":"2026-03-09T04:03:33.467904","MEAN_MOTION":15.27567346,"ECCENTRICITY":7.66e-5,"INCLINATION":43.0001,"RA_OF_ASC_NODE":131.7237,"ARG_OF_PERICENTER":232.1652,"MEAN_ANOMALY":127.913,"EPHEMERIS_TYPE":0,"CLASSIFICATION_TYPE":"U","NORAD_CAT_ID":62922,"ELEMENT_SET_NO":999,"REV_AT_EPOCH":6146,"BSTAR":0.001148007,"MEAN_MOTION_DOT":0.00031451,"MEAN_MOTION_DDOT":0}]
