FLOCK 4G-27             
1 62641U 25009AJ  26068.75406453  .00012587  00000+0  47455-3 0  9991
2 62641  97.3976 150.8631 0000756 322.4974  37.6212 15.27199247 63710
STARLINK-32916          
1 62922U 25027R   26068.16913736  .00031451  00000+0  11480-2 0  9994
2 62922  43.0001 131.7237 0000766 232.1652 127.9130 15.27567346 61461
